NORAD_CAT_ID,OBJECT_NAME,OBJECT_TYPE,EPOCH,MEAN_MOTION,ECCENTRICITY,INCLINATION,RA_OF_ASC_NODE,ARG_OF_PERICENTER,MEAN_ANOMALY,BSTAR,MEAN_MOTION_DOT,MEAN_MOTION_DDOT,TLE_LINE0,TLE_LINE1,TLE_LINE2,SEMIMAJOR_AXIS,PERIOD,APOGEE,PERIGEE,DECAYED
55955.0,STARLINK-5878,PAYLOAD,2024-04-21 16:07:55,14.98322909,0.0001714,70.0034,196.7111,230.9332,129.1675,-0.00011458,-1.459e-05,0.0,0 STARLINK-5878,1 55955U 23037AT  24112.67217255 -.00001459  00000-0 -11458-3 0  9992,2 55955  70.0034 196.7111 0001714 230.9332 129.1675 14.98322909 61900,6950.215,96.107,573.271,570.889,0.0
55955.0,STARLINK-5878,PAYLOAD,2024-04-22 04:56:59,14.98338732,0.0002618,69.9999,195.3626,265.539,94.547,-8.6111e-05,-1.12e-05,0.0,0 STARLINK-5878,1 55955U 23037AT  24113.20623854 -.00001120  00000-0 -86111-4 0  9992,2 55955  69.9999 195.3626 0002618 265.5390  94.5470 14.98338732 61982,6950.166,96.106,573.85,570.211,0.0
55955.0,STARLINK-5878,PAYLOAD,2024-04-22 09:45:23,14.98338135,0.0002667,69.9999,194.8579,266.2549,93.8306,-5.6471e-05,-7.67e-06,0.0,0 STARLINK-5878,1 55955U 23037AT  24113.40651735 -.00000767  00000-0 -56471-4 0  9995,2 55955  69.9999 194.8579 0002667 266.2549  93.8306 14.98338135 61674,6950.168,96.106,573.886,570.179,0.0
55955.0,STARLINK-5878,PAYLOAD,2024-04-22 14:33:46,14.98341567,0.0002331,70.0016,194.3547,258.3676,101.7222,-1.4341e-05,-2.64e-06,0.0,0 STARLINK-5878,1 55955U 23037AT  24113.60679329 -.00000264  00000-0 -14341-4 0  9998,2 55955  70.0016 194.3547 0002331 258.3676 101.7222 14.98341567 61701,6950.157,96.106,573.642,570.402,0.0
55955.0,STARLINK-5878,PAYLOAD,2024-04-23 04:59:00,14.98329385,0.0002178,70.002,192.8406,255.5157,104.576,0.00015104,1.71e-05,0.0,0 STARLINK-5878,1 55955U 23037AT  24114.20764098  .00001710  00000-0  15104-3 0  9995,2 55955  70.0020 192.8406 0002178 255.5157 104.5760 14.98329385 62135,6950.195,96.107,573.574,570.546,0.0
55955.0,STARLINK-5878,PAYLOAD,2024-04-23 14:35:48,14.98327967,0.0002214,70.0022,191.8313,249.2828,110.8094,9.8747e-05,1.085e-05,0.0,0 STARLINK-5878,1 55955U 23037AT  24114.60820328  .00001085  00000-0  98747-4 0  9998,2 55955  70.0022 191.8313 0002214 249.2828 110.8094 14.98327967 61851,6950.199,96.107,573.603,570.525,0.0
55955.0,STARLINK-5878,PAYLOAD,2024-04-24 13:01:39,14.9840843,0.000285,70.0019,189.4751,252.8912,107.1935,-0.001217,-0.00014613,0.0,0 STARLINK-5878,1 55955U 23037AT  24115.54281923 -.00014613  00000-0 -12170-2 0  9991,2 55955  70.0019 189.4751 0002850 252.8912 107.1935 14.98408430 62338,6949.95,96.102,573.796,569.835,0.0
55955.0,STARLINK-5878,PAYLOAD,2024-04-24 14:37:48,14.98356281,0.0002483,70.0019,189.3072,255.2925,104.7959,-0.00030755,-3.763e-05,0.0,0 STARLINK-5878,1 55955U 23037AT  24115.60958931 -.00003763  00000-0 -30755-3 0  9992,2 55955  70.0019 189.3072 0002483 255.2925 104.7959 14.98356281 62342,6950.112,96.105,573.702,570.251,0.0
55955.0,STARLINK-5878,PAYLOAD,2024-04-25 05:03:01,14.98328041,0.0002031,70.0032,187.7936,250.4042,109.6898,-2.0459e-05,-3.37e-06,0.0,0 STARLINK-5878,1 55955U 23037AT  24116.21043895 -.00000337  00000-0 -20459-4 0  9999,2 55955  70.0032 187.7936 0002031 250.4042 109.6898 14.98328041 62433,6950.199,96.107,573.476,570.652,0.0
55955.0,STARLINK-5878,PAYLOAD,2024-04-25 13:03:43,14.98325776,0.0002426,70.0019,186.9512,254.8705,105.2186,-0.00025896,-3.181e-05,0.0,0 STARLINK-5878,1 55955U 23037AT  24116.54424817 -.00003181  00000-0 -25896-3 0  9991,2 55955  70.0019 186.9512 0002426 254.8705 105.2186 14.98325776 62480,6950.206,96.107,573.757,570.385,0.0
55955.0,STARLINK-5878,PAYLOAD,2024-04-25 14:39:51,14.98318469,0.0002595,70.0019,186.783,260.4657,99.6208,-0.00013378,-1.688e-05,0.0,0 STARLINK-5878,1 55955U 23037AT  24116.61101014 -.00001688  00000-0 -13378-3 0  9992,2 55955  70.0019 186.7830 0002595 260.4657  99.6208 14.98318469 62153,6950.229,96.108,573.897,570.29,0.0
55955.0,STARLINK-5878,PAYLOAD,2024-04-26 05:05:02,14.98335162,0.0003417,69.9994,185.2666,274.0449,86.032,-6.447e-05,-8.62e-06,0.0,0 STARLINK-5878,1 55955U 23037AT  24117.21183790 -.00000862  00000-0 -64470-4 0  9993,2 55955  69.9994 185.2666 0003417 274.0449  86.0320 14.98335162 62588,6950.177,96.107,574.417,569.667,0.0
55955.0,STARLINK-5878,PAYLOAD,2024-04-26 13:05:42,14.98340539,0.0002636,70.001,184.425,260.7492,99.3369,0.00011,1.22e-05,0.0,0 STARLINK-5878,1 55955U 23037AT  24117.54562750  .00001220  00000-0  11000-3 0  9993,2 55955  70.0010 184.4250 0002636 260.7492  99.3369 14.98340539 62632,6950.16,96.106,573.857,570.193,0.0
55955.0,STARLINK-5878,PAYLOAD,2024-04-26 14:41:50,14.98339852,0.0002479,70.0016,184.2578,253.3184,106.7703,8.8482e-05,9.63e-06,0.0,0 STARLINK-5878,1 55955U 23037AT  24117.61238809  .00000963  00000-0  88482-4 0  9998,2 55955  70.0016 184.2578 0002479 253.3184 106.7703 14.98339852 62305,6950.162,96.106,573.75,570.304,0.0
55955.0,STARLINK-5878,PAYLOAD,2024-04-27 13:07:44,14.98324146,0.0002682,70.001,181.9004,260.9206,99.165,9.1916e-05,1.004e-05,0.0,0 STARLINK-5878,1 55955U 23037AT  24118.54703763  .00001004  00000-0  91916-4 0  9990,2 55955  70.0010 181.9004 0002682 260.9206  99.1650 14.98324146 62780,6950.211,96.107,573.94,570.212,0.0
55955.0,STARLINK-5878,PAYLOAD,2024-04-27 21:08:24,14.98323868,0.0002631,70.0012,181.0576,272.19,87.8958,1.0051e-05,2.7e-07,0.0,0 STARLINK-5878,1 55955U 23037AT  24118.88084160  .00000027  00000-0  10051-4 0  9995,2 55955  70.0012 181.0576 0002631 272.1900  87.8958 14.98323868 62490,6950.212,96.107,573.905,570.248,0.0
55955.0,STARLINK-5878,PAYLOAD,2024-04-28 13:09:45,14.98325487,0.0002759,70.0009,179.3752,264.4445,95.64,-0.0001308,-1.653e-05,0.0,0 STARLINK-5878,1 55955U 23037AT  24119.54844443 -.00001653  00000-0 -13080-3 0  9999,2 55955  70.0009 179.3752 0002759 264.4445  95.6400 14.98325487 62938,6950.207,96.107,573.989,570.154,0.0
55955.0,STARLINK-5878,PAYLOAD,2024-04-28 21:10:25,14.98338001,0.0002827,70.0003,178.5322,267.7772,92.3064,-0.00021157,-2.617e-05,0.0,0 STARLINK-5878,1 55955U 23037AT  24119.88223816 -.00002617  00000-0 -21157-3 0  9996,2 55955  70.0003 178.5322 0002827 267.7772  92.3064 14.98338001 62982,6950.168,96.106,573.998,570.068,0.0
55955.0,STARLINK-5878,PAYLOAD,2024-04-29 13:11:45,14.98331283,0.00028,70.0002,176.8495,267.7104,92.3734,4.1594e-05,4.03e-06,0.0,0 STARLINK-5878,1 55955U 23037AT  24120.54983608  .00000403  00000-0  41594-4 0  9990,2 55955  70.0002 176.8495 0002800 267.7104  92.3734 14.98331283 62746,6950.189,96.107,574.0,570.108,0.0
55955.0,STARLINK-5878,PAYLOAD,2024-04-30 05:13:06,14.98326174,0.0002927,69.9996,175.1653,268.1443,91.9381,0.00011677,1.3e-05,0.0,0 STARLINK-5878,1 55955U 23037AT  24121.21743670  .00001300  00000-0  11677-3 0  9993,2 55955  69.9996 175.1653 0002927 268.1443  91.9381 14.98326174 63189,6950.205,96.107,574.104,570.035,0.0
55955.0,STARLINK-5878,PAYLOAD,2024-04-30 13:13:46,14.98329566,0.0003014,69.9993,174.3232,267.7407,92.3407,7.9637e-05,8.57e-06,0.0,0 STARLINK-5878,1 55955U 23037AT  24121.55123562  .00000857  00000-0  79637-4 0  9999,2 55955  69.9993 174.3232 0003014 267.7407  92.3407 14.98329566 62892,6950.194,96.107,574.154,569.964,0.0
55955.0,STARLINK-5878,PAYLOAD,2024-04-30 21:14:26,14.98331815,0.0003023,69.9993,173.4813,267.726,92.3553,4.6977e-05,4.68e-06,0.0,0 STARLINK-5878,1 55955U 23037AT  24121.88503462  .00000468  00000-0  46977-4 0  9995,2 55955  69.9993 173.4813 0003023 267.7260  92.3553 14.98331815 62942,6950.187,96.107,574.153,569.951,0.0
55955.0,STARLINK-5878,PAYLOAD,2024-05-01 05:15:07,14.98333803,0.0003028,69.9992,172.6397,267.8288,92.2524,2.2915e-05,1.8e-06,0.0,0 STARLINK-5878,1 55955U 23037AT  24122.21883310  .00000180  00000-0  22915-4 0  9993,2 55955  69.9992 172.6397 0003028 267.8288  92.2524 14.98333803 63335,6950.181,96.107,574.151,569.942,0.0
55955.0,STARLINK-5878,PAYLOAD,2024-05-01 10:03:31,14.98337721,0.0003043,69.9991,172.1352,268.3648,91.7163,2.1779e-05,1.67e-06,0.0,0 STARLINK-5878,1 55955U 23037AT  24122.41911002  .00000167  00000-0  21779-4 0  9997,2 55955  69.9991 172.1352 0003043 268.3648  91.7163 14.98337721 63025,6950.169,96.107,574.149,569.919,0.0
55955.0,STARLINK-5878,PAYLOAD,2024-05-02 05:17:08,14.98331348,0.0003043,69.9988,170.1155,266.1699,93.9113,-4.1827e-05,-5.92e-06,0.0,0 STARLINK-5878,1 55955U 23037AT  24123.22023366 -.00000592  00000-0 -41827-4 0  9994,2 55955  69.9988 170.1155 0003043 266.1699  93.9113 14.98331348 63480,6950.189,96.107,574.169,569.939,0.0
55955.0,STARLINK-5878,PAYLOAD,2024-05-02 13:17:48,14.98330014,0.0003141,69.9987,169.2741,268.7581,91.3219,-5.5515e-05,-7.55e-06,0.0,0 STARLINK-5878,1 55955U 23037AT  24123.55403471 -.00000755  00000-0 -55515-4 0  9999,2 55955  69.9987 169.2741 0003141 268.7581  91.3219 14.98330014 63192,6950.193,96.107,574.241,569.875,0.0
55955.0,STARLINK-5878,PAYLOAD,2024-05-03 05:19:08,14.98335795,0.00032,69.9984,167.5907,269.0719,91.0073,4.6057e-05,4.57e-06,0.0,0 STARLINK-5878,1 55955U 23037AT  24124.22162674  .00000457  00000-0  46057-4 0  9999,2 55955  69.9984 167.5907 0003200 269.0719  91.0073 14.98335795 63632,6950.175,96.107,574.264,569.816,0.0
55955.0,STARLINK-5878,PAYLOAD,2024-05-03 13:19:48,14.98341368,0.0003188,69.9985,166.749,269.8697,90.2096,6.3191e-05,6.61e-06,0.0,0 STARLINK-5878,1 55955U 23037AT  24124.55542095  .00000661  00000-0  63191-4 0  9999,2 55955  69.9985 166.7490 0003188 269.8697  90.2096 14.98341368 63346,6950.158,96.106,574.238,569.807,0.0
55955.0,STARLINK-5878,PAYLOAD,2024-05-03 19:44:21,14.98330246,0.0002918,69.9987,166.0742,274.5957,85.4868,-4.9288e-07,-9.9e-07,0.0,0 STARLINK-5878,1 55955U 23037AT  24124.82246975 -.00000099  00000-0 -49288-6 0  9997,2 55955  69.9987 166.0742 0002918 274.5957  85.4868 14.98330246 63383,6950.192,96.107,574.085,570.029,0.0
55955.0,STARLINK-5878,PAYLOAD,2024-05-04 05:21:10,14.98302629,0.0002801,70.0008,165.0678,265.5667,94.5172,0.00015761,1.787e-05,0.0,0 STARLINK-5878,1 55955U 23037AT  24125.22304294  .00001787  00000-0  15761-3 0  9990,2 55955  70.0008 165.0678 0002801 265.5667  94.5172 14.98302629 63783,6950.278,96.109,574.089,570.196,0.0
